{
  "norad_id": 62222,
  "name": "STARLINK-11488 [DTC]",
  "history": [
    {
      "epoch": "2026-03-28T22:36:52.002720Z",
      "apogee_km": 360.30781960011063,
      "perigee_km": 358.55443487067896,
      "latitude_deg": -5.692990184043013e-05,
      "longitude_deg": -159.09289862113366,
      "height_km": 360.8341409896677,
      "semi_major_axis_km": 6737.568127235395,
      "eccentricity": 0.00013012,
      "inclination_deg": 53.1575,
      "raan_deg": 6.4793,
      "arg_perigee_deg": 123.9466,
      "mean_anomaly_deg": 236.1675,
      "mean_motion_rev_day": 15.69813312
    },
    {
      "epoch": "2026-03-29T01:40:14.531232Z",
      "apogee_km": 360.97015331967214,
      "perigee_km": 358.55798473696086,
      "latitude_deg": 2.21559749319429e-05,
      "longitude_deg": 154.31087546142595,
      "height_km": 359.76494627240226,
      "semi_major_axis_km": 6737.901069028317,
      "eccentricity": 0.000179,
      "inclination_deg": 53.158,
      "raan_deg": 5.8524,
      "arg_perigee_deg": 40.838,
      "mean_anomaly_deg": 319.2772,
      "mean_motion_rev_day": 15.69696959
    },
    {
      "epoch": "2026-03-30T03:38:51.635328Z",
      "apogee_km": 360.28451006370506,
      "perigee_km": 358.84398953649816,
      "latitude_deg": -3.086195482308739e-05,
      "longitude_deg": 118.25439982173812,
      "height_km": 360.68208748923587,
      "semi_major_axis_km": 6737.701249800101,
      "eccentricity": 0.0001069,
      "inclination_deg": 53.1575,
      "raan_deg": 0.5174,
      "arg_perigee_deg": 106.4805,
      "mean_anomaly_deg": 253.633,
      "mean_motion_rev_day": 15.69766788
    },
    {
      "epoch": "2026-03-30T11:17:17.971296Z",
      "apogee_km": 361.421486959568,
      "perigee_km": 357.70887830289485,
      "latitude_deg": 2.720062048289503e-05,
      "longitude_deg": 1.7612199494383987,
      "height_km": 360.1217521307989,
      "semi_major_axis_km": 6737.702182631231,
      "eccentricity": 0.00027551,
      "inclination_deg": 53.1577,
      "raan_deg": 358.9477,
      "arg_perigee_deg": 78.9896,
      "mean_anomaly_deg": 281.1432,
      "mean_motion_rev_day": 15.69766462
    },
    {
      "epoch": "2026-03-30T21:59:04.432992Z",
      "apogee_km": 359.93957148482514,
      "perigee_km": 359.0710893884316,
      "latitude_deg": 6.670136066233584e-05,
      "longitude_deg": -161.31861944790978,
      "height_km": 360.01218172342294,
      "semi_major_axis_km": 6737.642330436628,
      "eccentricity": 6.445e-05,
      "inclination_deg": 53.1581,
      "raan_deg": 356.7507,
      "arg_perigee_deg": 20.1136,
      "mean_anomaly_deg": 339.9908,
      "mean_motion_rev_day": 15.69787379
    }
  ]
}